CAS-2T & KS-1Q          
1 41847U 16066G   21152.40361162  .00000069  00000-0  21678-4 0  9990
2 41847  98.6020 211.4650 0364044 268.3095  87.6372 14.38190807239574
NAYIF-1 (EO-88)         
1 42017U 17008BX  21152.45276296  .00002054  00000-0  77568-4 0  9990
2 42017  97.3160 220.3390 0006799 151.4125 208.7489 15.28115878238817
ZHUHAI-1 02 (CAS-4B)    
1 42759U 17034B   21152.48788426  .00000346  00000-0  34125-4 0  9992
2 42759  43.0178 268.8551 0007955  57.0686  33.4376 15.10213594218733
ZHUHAI-1 01 (CAS-4A)    
1 42761U 17034D   21152.54985527  .00000485  00000-0  42398-4 0  9998
2 42761  43.0180 267.5835 0008041  61.0248  50.9198 15.10300217218742
MAX VALIER SAT          
1 42778U 17036P   21152.41016062  .00001227  00000-0  54134-4 0  9999
2 42778  97.2560 201.5465 0010526 226.5741 133.4621 15.23571021218843
RADFXSAT (FOX-1B)       
1 43017U 17073E   21151.96735164  .00000978  00000-0  80592-4 0  9996
2 43017  97.7083  56.6055 0254994 354.5526   5.2922 14.79537673190687
FOX-1D (AO-92)          
1 43137U 18004AC  21152.45626953  .00001318  00000-0  55346-4 0  9992
2 43137  97.4070 226.6509 0007112 266.7636  93.2788 15.25215890188220
DIWATA-2B               
1 43678U 18084H   21152.62350865 -.00000254  00000-0 -19469-4 0  9991
2 43678  97.9215 277.8227 0011352 100.6759 259.5750 14.91746344141077
ES'HAIL 2               
1 43700U 18090A   21152.55800771  .00000135  00000-0  00000-0 0  9995
2 43700   0.0122 297.0651 0001403 157.4042  22.4755  1.00274019  9213
FOX-1CLIFF (AO-95)      
1 43770U 18099N   21152.45685197  .00000329  00000-0  34950-4 0  9993
2 43770  97.6651 222.9968 0015996 109.9353 250.3592 14.95312002136064
ITASAT 1                
1 43786U 18099AE  21152.44611230 -.00000077  00000-0 -18334-5 0  9997
2 43786  97.6673 223.6533 0016618 103.4491 256.8583 14.95608973136094
JY1SAT (JO-97)          
1 43803U 18099AX  21152.47951068  .00000891  00000-0  84615-4 0  9992
2 43803  97.6636 223.4395 0016801 103.4228 256.8867 14.95854618136105
UWE-4                   
1 43880U 18111E   21152.54066370  .00000411  00000-0  40881-4 0  9998
2 43880  97.6875  60.5443 0012835 151.6930 208.4992 14.96854719132704
PSAT2 (NO-104)          
1 44354U 19036R   21152.54451205  .00010680  00000-0  13897-3 0  9992
2 44354  28.5257 233.0764 0327438 103.5860 260.1418 15.13132167106566
BRICSAT2 (NO-103)       
1 44355U 19036S   21152.41559654  .00023889  00000-0  26326-3 0  9992
2 44355  28.5230 191.4495 0266996 171.3768 189.1536 15.28683217106976
JAISAT-1                
1 44419U 19038F   21152.37694873  .00001231  00000-0  71743-4 0  9994
2 44419  97.5873 117.1389 0021485  12.5763 347.6000 15.13730001105363
DUCHIFAT-3              
1 44854U 19089C   21152.47894303  .00000449  00000-0  42251-4 0  9996
2 44854  36.9639 195.1041 0008665   2.2704 357.8072 14.99487900 80702
RS-44 & BREEZE-KM R/B   
1 44909U 19096E   21152.60019326  .00000035  00000-0  87525-4 0  9998
2 44909  82.5189 123.3458 0218228 129.9583 232.0913 12.79709986 66793
ORBITAL FACTORY 2 (OF-2)
1 45113U 19071C   21152.59256076  .00001958  00000-0  66510-4 0  9998
2 45113  51.6418 114.4084 0011254 235.3526 124.6397 15.35675186 74732
HUSKYSAT-1 (HO-107)     
1 45119U 19071J   21152.34397307  .00001816  00000-0  62414-4 0  9992
2 45119  51.6415 114.9944 0010674 230.7178 129.2859 15.35707923 74696
BY70-2                  
1 45857U 20042B   21152.45394552  .00001496  00000-0  21944-3 0  9998
2 45857  97.9837 228.3676 0009153 263.1574  96.8604 14.76992010 49188
SALSAT                  
1 46495U 20068K   21152.55439792  .00000434  00000-0  36347-4 0  9997
2 46495  97.6945  90.1447 0018594 123.4007 236.9000 15.03457804 36948
BY70-3                  
1 46839U 20079N   21152.60126427  .00003017  00000-0  95275-4 0  9990
2 46839  97.2400 226.7708 0005155 261.3703 236.6355 15.33591135 31778
RADFXSAT-2 (AO-109)     
1 47311U 21002C   21152.25914588  .00000733  00000-0  43909-4 0  9996
2 47311  60.6860 351.8201 0034282  39.3919 320.9651 15.21614914 20403
UVSQ-SAT                
1 47438U 21006AB  21152.44421261  .00000934  00000-0  56341-4 0  9999
2 47438  97.4881 213.9541 0013697 147.4807 212.7270 15.13107706 19638
DIY-1 (ARDUIQUBE)       
1 47963U 21022AH  21152.42830174  .00001598  00000-0  10993-3 0  9994
2 47963  97.5590  55.0451 0020121   4.9812 355.1612 15.07178895  9481
